NORAD_CAT_ID,OBJECT_NAME,OBJECT_TYPE,EPOCH,MEAN_MOTION,ECCENTRICITY,INCLINATION,RA_OF_ASC_NODE,ARG_OF_PERICENTER,MEAN_ANOMALY,BSTAR,MEAN_MOTION_DOT,MEAN_MOTION_DDOT,TLE_LINE0,TLE_LINE1,TLE_LINE2,SEMIMAJOR_AXIS,PERIOD,APOGEE,PERIGEE,DECAYED
53410.0,STARLINK-4492,PAYLOAD,2023-02-06 16:49:29,15.08857306,0.0001118,53.2174,133.3659,96.8348,263.2771,0.00013561,1.872e-05,0.0,0 STARLINK-4492,1 53410U 22097Y   23037.70103247  .00001872  00000-0  13561-3 0  9999,2 53410  53.2174 133.3659 0001118  96.8348 263.2771 15.08857306 28029,6917.827,95.436,540.466,538.919,0.0
53410.0,STARLINK-4492,PAYLOAD,2023-02-07 07:07:58,15.08835289,0.0001401,53.2168,130.6884,99.2386,260.8764,0.00010279,1.348e-05,0.0,0 STARLINK-4492,1 53410U 22097Y   23038.29720714  .00001348  00000-0  10279-3 0  9999,2 53410  53.2168 130.6884 0001401  99.2386 260.8764 15.08835289 28117,6917.895,95.438,540.729,538.791,0.0
53410.0,STARLINK-4492,PAYLOAD,2023-02-07 13:29:30,15.08850835,0.0001393,53.2173,129.5001,94.7689,265.3462,0.00012882,1.763e-05,0.0,0 STARLINK-4492,1 53410U 22097Y   23038.56215682  .00001763  00000-0  12882-3 0  9995,2 53410  53.2173 129.5001 0001393  94.7689 265.3462 15.08850835 28644,6917.847,95.437,540.676,538.749,0.0
53410.0,STARLINK-4492,PAYLOAD,2023-02-07 15:04:52,15.08856466,0.0001185,53.2172,129.2019,92.2027,267.9101,0.00017409,2.485e-05,0.0,0 STARLINK-4492,1 53410U 22097Y   23038.62839096  .00002485  00000-0  17409-3 0  9995,2 53410  53.2172 129.2019 0001185  92.2027 267.9101 15.08856466 28168,6917.83,95.437,540.515,538.875,0.0
53410.0,STARLINK-4492,PAYLOAD,2023-02-07 23:01:49,15.088422,0.0001356,53.2186,127.7149,87.1082,273.0065,6.4333e-05,7.36e-06,0.0,0 STARLINK-4492,1 53410U 22097Y   23038.95960322  .00000736  00000-0  64333-4 0  9994,2 53410  53.2186 127.7149 0001356  87.1082 273.0065 15.08842200 28218,6917.874,95.437,540.677,538.801,0.0
53410.0,STARLINK-4492,PAYLOAD,2023-02-08 13:20:18,15.08846694,0.0001185,53.2178,125.0395,104.663,255.4494,-8.1453e-05,-1.584e-05,0.0,0 STARLINK-4492,1 53410U 22097Y   23039.55576677 -.00001584  00000-0 -81453-4 0  9993,2 53410  53.2178 125.0395 0001185 104.6630 255.4494 15.08846694 28791,6917.86,95.437,540.545,538.905,0.0
53410.0,STARLINK-4492,PAYLOAD,2023-02-08 14:55:41,15.08849602,0.0001051,53.2173,124.7411,101.2483,258.8627,-3.5918e-05,-8.6e-06,0.0,0 STARLINK-4492,1 53410U 22097Y   23039.62200262 -.00000860  00000-0 -35918-4 0  9996,2 53410  53.2173 124.7411 0001051 101.2483 258.8627 15.08849602 28801,6917.851,95.437,540.443,538.989,0.0
53410.0,STARLINK-4492,PAYLOAD,2023-02-08 22:52:37,15.08832165,0.0001521,53.2201,123.2517,89.0871,271.0295,-9.7511e-05,-1.839e-05,0.0,0 STARLINK-4492,1 53410U 22097Y   23039.95321754 -.00001839  00000-0 -97511-4 0  9996,2 53410  53.2201 123.2517 0001521  89.0871 271.0295 15.08832165 28365,6917.904,95.438,540.822,538.717,0.0
53410.0,STARLINK-4492,PAYLOAD,2023-02-09 11:35:42,15.0884233,0.0001767,53.2171,120.8811,63.4082,296.7091,3.4007e-05,2.53e-06,0.0,0 STARLINK-4492,1 53410U 22097Y   23040.48313050  .00000253  00000-0  34007-4 0  9994,2 53410  53.2171 120.8811 0001767  63.4082 296.7091 15.08842330 28939,6917.873,95.437,540.961,538.516,0.0
53410.0,STARLINK-4492,PAYLOAD,2023-02-09 14:46:27,15.08863018,0.00012,53.2185,120.2802,104.899,255.2135,7.4834e-05,9.04e-06,0.0,0 STARLINK-4492,1 53410U 22097Y   23040.61559248  .00000904  00000-0  74834-4 0  9995,2 53410  53.2185 120.2802 0001200 104.8990 255.2135 15.08863018 28461,6917.81,95.436,540.505,538.845,0.0
53410.0,STARLINK-4492,PAYLOAD,2023-02-10 14:37:14,15.08855201,0.0001337,53.2187,115.8199,122.0862,238.026,0.00019627,2.838e-05,0.0,0 STARLINK-4492,1 53410U 22097Y   23041.60919813  .00002838  00000-0  19627-3 0  9999,2 53410  53.2187 115.8199 0001337 122.0862 238.0260 15.08855201 28613,6917.834,95.437,540.624,538.774,0.0
53410.0,STARLINK-4492,PAYLOAD,2023-02-11 06:31:07,15.08832946,0.000129,53.2165,112.8524,110.687,249.426,1.5383e-05,-4.3e-07,0.0,0 STARLINK-4492,1 53410U 22097Y   23042.27161958 -.00000043  00000-0  15383-4 0  9995,2 53410  53.2165 112.8524 0001290 110.6870 249.4260 15.08832946 28716,6917.902,95.438,540.659,538.875,0.0
53410.0,STARLINK-4492,PAYLOAD,2023-02-11 08:06:31,15.08833635,0.0001278,53.2158,112.5509,90.4737,269.6401,2.4839e-05,1.07e-06,0.0,0 STARLINK-4492,1 53410U 22097Y   23042.33785992  .00000107  00000-0  24839-4 0  9998,2 53410  53.2158 112.5509 0001278  90.4737 269.6401 15.08833635 29214,6917.9,95.438,540.649,538.881,0.0
53410.0,STARLINK-4492,PAYLOAD,2023-02-11 14:28:02,15.08856834,0.0001303,53.2162,111.3635,88.683,271.4312,0.00012703,1.735e-05,0.0,0 STARLINK-4492,1 53410U 22097Y   23042.60280462  .00001735  00000-0  12703-3 0  9994,2 53410  53.2162 111.3635 0001303  88.6830 271.4312 15.08856834 28765,6917.829,95.436,540.595,538.793,0.0
53410.0,STARLINK-4492,PAYLOAD,2023-02-12 07:57:17,15.08843061,0.0001253,53.2178,108.0877,110.2001,249.9126,-6.3051e-05,-1.291e-05,0.0,0 STARLINK-4492,1 53410U 22097Y   23043.33145737 -.00001291  00000-0 -63051-4 0  9992,2 53410  53.2178 108.0877 0001253 110.2001 249.9126 15.08843061 28872,6917.871,95.437,540.603,538.869,0.0
53410.0,STARLINK-4492,PAYLOAD,2023-02-12 11:08:03,15.08844404,0.0001506,53.2181,107.5024,93.6083,266.5081,0.00013326,1.834e-05,0.0,0 STARLINK-4492,1 53410U 22097Y   23043.46393492  .00001834  00000-0  13326-3 0  9999,2 53410  53.2181 107.5024 0001506  93.6083 266.5081 15.08844404 29383,6917.867,95.437,540.774,538.69,0.0
53410.0,STARLINK-4492,PAYLOAD,2023-02-12 14:18:49,15.08854,0.0001405,53.2167,106.9013,103.3763,256.7386,0.00023728,3.492e-05,0.0,0 STARLINK-4492,1 53410U 22097Y   23043.59641014  .00003492  00000-0  23728-3 0  9998,2 53410  53.2167 106.9013 0001405 103.3763 256.7386 15.08854000 28910,6917.838,95.437,540.675,538.731,0.0
53410.0,STARLINK-4492,PAYLOAD,2023-02-12 20:40:23,15.0883554,0.0001751,53.2182,105.7073,79.9815,280.1375,-0.00012986,-2.354e-05,0.0,0 STARLINK-4492,1 53410U 22097Y   23043.86137861 -.00002354  00000-0 -12986-3 0  9990,2 53410  53.2182 105.7073 0001751  79.9815 280.1375 15.08835540 28951,6917.894,95.438,540.97,538.548,0.0
53410.0,STARLINK-4492,PAYLOAD,2023-02-13 12:34:13,15.08853,0.000142,53.2166,102.7389,107.8291,252.2856,0.00020502,2.978e-05,0.0,0 STARLINK-4492,1 53410U 22097Y   23044.52377150  .00002978  00000-0  20502-3 0  9994,2 53410  53.2166 102.7389 0001420 107.8291 252.2856 15.08853000 29059,6917.841,95.437,540.688,538.723,0.0
53410.0,STARLINK-4492,PAYLOAD,2023-02-13 20:31:09,15.08845112,0.0001533,53.2172,101.2491,96.709,263.4076,9.8076e-06,-1.32e-06,0.0,0 STARLINK-4492,1 53410U 22097Y   23044.85497218 -.00000132  00000-0  98076-5 0  9992,2 53410  53.2172 101.2491 0001533  96.7090 263.4076 15.08845112 29101,6917.865,95.437,540.79,538.669,0.0
53410.0,STARLINK-4492,PAYLOAD,2023-02-14 10:49:38,15.0884358,0.0001617,53.2179,98.5759,110.9928,249.1237,2.9981e-05,1.89e-06,0.0,0 STARLINK-4492,1 53410U 22097Y   23045.45113647  .00000189  00000-0  29981-4 0  9999,2 53410  53.2179  98.5759 0001617 110.9928 249.1237 15.08843580 29191,6917.869,95.437,540.853,538.616,0.0
53410.0,STARLINK-4492,PAYLOAD,2023-02-14 12:25:01,15.08847366,0.0001258,53.2166,98.2773,102.1556,257.9577,0.00014819,2.072e-05,0.0,0 STARLINK-4492,1 53410U 22097Y   23045.51737394  .00002072  00000-0  14819-3 0  9993,2 53410  53.2166  98.2773 0001258 102.1556 257.9577 15.08847366 29696,6917.858,95.437,540.593,538.853,0.0
53410.0,STARLINK-4492,PAYLOAD,2023-02-14 15:35:47,15.08858241,0.0001128,53.2165,97.6825,101.9663,258.1455,0.00040272,6.13e-05,0.0,0 STARLINK-4492,1 53410U 22097Y   23045.64984974  .00006130  00000-0  40272-3 0  9996,2 53410  53.2165  97.6825 0001128 101.9663 258.1455 15.08858241 29229,6917.825,95.436,540.47,538.909,0.0
53410.0,STARLINK-4492,PAYLOAD,2023-02-15 05:54:16,15.08834624,8.54e-05,53.2179,95.0083,85.3652,274.7438,0.00010386,1.365e-05,0.0,0 STARLINK-4492,1 53410U 22097Y   23046.24602033  .00001365  00000-0  10386-3 0  9994,2 53410  53.2179  95.0083 0000854  85.3652 274.7438 15.08834624 29314,6917.897,95.438,540.353,539.171,0.0
53410.0,STARLINK-4492,PAYLOAD,2023-02-15 09:05:02,15.08852989,0.0001282,53.216,94.4117,112.8713,247.2414,0.00068321,0.00010606,0.0,0 STARLINK-4492,1 53410U 22097Y   23046.37849631  .00010606  00000-0  68321-3 0  9995,2 53410  53.2160  94.4117 0001282 112.8713 247.2414 15.08852989 29330,6917.841,95.437,540.593,538.819,0.0
53410.0,STARLINK-4492,PAYLOAD,2023-02-15 12:15:48,15.08871531,0.0001203,53.2162,93.8178,109.6027,250.5095,0.0024599,0.00039113,0.0,0 STARLINK-4492,1 53410U 22097Y   23046.51097474  .00039113  00000-0  24599-2 0  9993,2 53410  53.2162  93.8178 0001203 109.6027 250.5095 15.08871531 29355,6917.784,95.436,540.481,538.817,0.0
53410.0,STARLINK-4492,PAYLOAD,2023-02-15 20:12:43,15.08858202,3.71e-05,53.2159,92.3294,201.3563,158.7414,0.00085805,0.00013401,0.0,0 STARLINK-4492,1 53410U 22097Y   23046.84216945  .00013401  00000-0  85805-3 0  9995,2 53410  53.2159  92.3294 0000371 201.3563 158.7414 15.08858202 29404,6917.825,95.436,539.946,539.433,0.0
53410.0,STARLINK-4492,PAYLOAD,2023-02-16 10:31:11,15.08876633,0.000117,53.216,89.654,92.4996,267.613,0.0022188,0.00035236,0.0,0 STARLINK-4492,1 53410U 22097Y   23047.43832884  .00035236  00000-0  22188-2 0  9991,2 53410  53.2160  89.6540 0001170  92.4996 267.6130 15.08876633 29982,6917.768,95.435,540.443,538.824,0.0
53410.0,STARLINK-4492,PAYLOAD,2023-02-16 20:03:30,15.0885749,0.0001431,53.2165,87.8698,87.3778,272.7378,0.00096099,0.00015047,0.0,0 STARLINK-4492,1 53410U 22097Y   23047.83577120  .00015047  00000-0  96099-3 0  9995,2 53410  53.2165  87.8698 0001431  87.3778 272.7378 15.08857490 29556,6917.827,95.436,540.682,538.702,0.0
53410.0,STARLINK-4492,PAYLOAD,2023-02-17 11:57:23,15.08818467,7.99e-05,53.2164,84.8965,111.7152,248.3925,0.0020111,0.00031845,0.0,0 STARLINK-4492,1 53410U 22097Y   23048.49818490  .00031845  00000-0  20111-2 0  9991,2 53410  53.2164  84.8965 0000799 111.7152 248.3925 15.08818467 30148,6917.946,95.439,540.364,539.258,0.0
